{"fetched_at":"2026-07-12T17:32:25.735Z","source":"https://celestrak.org/NORAD/elements/gp.php?GROUP=planet&FORMAT=JSON","constellation":"superdove","records":[{"OBJECT_NAME":"FLOCK 4Q-16","OBJECT_ID":"2023-174R","EPOCH":"2026-07-12T13:01:36.402816","CLASSIFICATION_TYPE":"U","MEAN_MOTION":15.50291631,"ECCENTRICITY":0.0006968,"INCLINATION":97.3834,"RA_OF_ASC_NODE":282.2572,"ARG_OF_PERICENTER":84.1653,"MEAN_ANOMALY":276.0392,"EPHEMERIS_TYPE":0,"NORAD_CAT_ID":58271,"ELEMENT_SET_NO":999,"REV_AT_EPOCH":14950,"BSTAR":0.00026082,"MEAN_MOTION_DOT":0.00014692,"MEAN_MOTION_DDOT":0},{"OBJECT_NAME":"FLOCK 4Q-11","OBJECT_ID":"2023-174T","EPOCH":"2026-07-12T04:39:24.226560","CLASSIFICATION_TYPE":"U","MEAN_MOTION":15.50780725,"ECCENTRICITY":0.00065374,"INCLINATION":97.3867,"RA_OF_ASC_NODE":282.5322,"ARG_OF_PERICENTER":80.4449,"MEAN_ANOMALY":279.7541,"EPHEMERIS_TYPE":0,"NORAD_CAT_ID":58273,"ELEMENT_SET_NO":999,"REV_AT_EPOCH":14946,"BSTAR":0.00026928544,"MEAN_MOTION_DOT":0.00015437,"MEAN_MOTION_DDOT":0},{"OBJECT_NAME":"FLOCK 4Q-28","OBJECT_ID":"2023-174AA","EPOCH":"2026-07-12T01:34:06.812832","CLASSIFICATION_TYPE":"U","MEAN_MOTION":15.56636703,"ECCENTRICITY":0.00050214,"INCLINATION":97.3887,"RA_OF_ASC_NODE":285.1066,"ARG_OF_PERICENTER":72.8254,"MEAN_ANOMALY":287.3551,"EPHEMERIS_TYPE":0,"NORAD_CAT_ID":58280,"ELEMENT_SET_NO":999,"REV_AT_EPOCH":14961,"BSTAR":0.00028931871,"MEAN_MOTION_DOT":0.00020527,"MEAN_MOTION_DDOT":0},{"OBJECT_NAME":"FLOCK 4Q-27","OBJECT_ID":"2023-174AC","EPOCH":"2026-07-12T12:25:08.728896","CLASSIFICATION_TYPE":"U","MEAN_MOTION":15.56849475,"ECCENTRICITY":0.0004168,"INCLINATION":97.3816,"RA_OF_ASC_NODE":284.9829,"ARG_OF_PERICENTER":76.8262,"MEAN_ANOMALY":283.3458,"EPHEMERIS_TYPE":0,"NORAD_CAT_ID":58282,"ELEMENT_SET_NO":999,"REV_AT_EPOCH":14969,"BSTAR":0.00030127,"MEAN_MOTION_DOT":0.00021548,"MEAN_MOTION_DDOT":0},{"OBJECT_NAME":"FLOCK 4Q-7","OBJECT_ID":"2023-174BQ","EPOCH":"2026-07-12T05:09:39.121632","CLASSIFICATION_TYPE":"U","MEAN_MOTION":15.5721937,"ECCENTRICITY":0.00048514,"INCLINATION":97.3918,"RA_OF_ASC_NODE":285.5833,"ARG_OF_PERICENTER":55.7328,"MEAN_ANOMALY":304.4386,"EPHEMERIS_TYPE":0,"NORAD_CAT_ID":58318,"ELEMENT_SET_NO":999,"REV_AT_EPOCH":14964,"BSTAR":0.00032085189,"MEAN_MOTION_DOT":0.00023281,"MEAN_MOTION_DDOT":0},{"OBJECT_NAME":"FLOCK 4Q-2","OBJECT_ID":"2023-174BS","EPOCH":"2026-07-12T12:02:03.437952","CLASSIFICATION_TYPE":"U","MEAN_MOTION":15.50747451,"ECCENTRICITY":0.0005082,"INCLINATION":97.3845,"RA_OF_ASC_NODE":282.5609,"ARG_OF_PERICENTER":60.1203,"MEAN_ANOMALY":300.0553,"EPHEMERIS_TYPE":0,"NORAD_CAT_ID":58320,"ELEMENT_SET_NO":999,"REV_AT_EPOCH":14952,"BSTAR":0.00025753,"MEAN_MOTION_DOT":0.00014735,"MEAN_MOTION_DDOT":0},{"OBJECT_NAME":"FLOCK 4Q-9","OBJECT_ID":"2023-174BU","EPOCH":"2026-07-11T19:25:34.388256","CLASSIFICATION_TYPE":"U","MEAN_MOTION":15.51225011,"ECCENTRICITY":0.00059806,"INCLINATION":97.3861,"RA_OF_ASC_NODE":281.9592,"ARG_OF_PERICENTER":62.9295,"MEAN_ANOMALY":297.2566,"EPHEMERIS_TYPE":0,"NORAD_CAT_ID":58322,"ELEMENT_SET_NO":999,"REV_AT_EPOCH":14940,"BSTAR":0.00029692291,"MEAN_MOTION_DOT":0.00017304,"MEAN_MOTION_DDOT":0},{"OBJECT_NAME":"FLOCK 4Q-4","OBJECT_ID":"2023-174BZ","EPOCH":"2026-07-12T04:59:19.924800","CLASSIFICATION_TYPE":"U","MEAN_MOTION":15.49766988,"ECCENTRICITY":0.00060553,"INCLINATION":97.3831,"RA_OF_ASC_NODE":281.4914,"ARG_OF_PERICENTER":83.6191,"MEAN_ANOMALY":276.575,"EPHEMERIS_TYPE":0,"NORAD_CAT_ID":58327,"ELEMENT_SET_NO":999,"REV_AT_EPOCH":14943,"BSTAR":0.00025149275,"MEAN_MOTION_DOT":0.00013898,"MEAN_MOTION_DDOT":0},{"OBJECT_NAME":"FLOCK 4Q-13","OBJECT_ID":"2023-174CA","EPOCH":"2026-07-11T19:29:20.946336","CLASSIFICATION_TYPE":"U","MEAN_MOTION":15.52773394,"ECCENTRICITY":0.00061835,"INCLINATION":97.4007,"RA_OF_ASC_NODE":284.3664,"ARG_OF_PERICENTER":65.7003,"MEAN_ANOMALY":294.4895,"EPHEMERIS_TYPE":0,"NORAD_CAT_ID":58328,"ELEMENT_SET_NO":999,"REV_AT_EPOCH":14949,"BSTAR":0.00024589551,"MEAN_MOTION_DOT":0.00015127,"MEAN_MOTION_DDOT":0},{"OBJECT_NAME":"FLOCK 4BE-18","OBJECT_ID":"2024-149N","EPOCH":"2026-07-11T19:13:24.539808","CLASSIFICATION_TYPE":"U","MEAN_MOTION":15.42653469,"ECCENTRICITY":0.00049123,"INCLINATION":97.3728,"RA_OF_ASC_NODE":276.8003,"ARG_OF_PERICENTER":153.7878,"MEAN_ANOMALY":206.3619,"EPHEMERIS_TYPE":0,"NORAD_CAT_ID":60480,"ELEMENT_SET_NO":999,"REV_AT_EPOCH":10610,"BSTAR":0.00019276175,"MEAN_MOTION_DOT":0.00008312,"MEAN_MOTION_DDOT":0},{"OBJECT_NAME":"FLOCK 4BE-7","OBJECT_ID":"2024-149P","EPOCH":"2026-07-12T11:31:59.284128","CLASSIFICATION_TYPE":"U","MEAN_MOTION":15.41376569,"ECCENTRICITY":0.0004099,"INCLINATION":97.3761,"RA_OF_ASC_NODE":276.782,"ARG_OF_PERICENTER":155.1561,"MEAN_ANOMALY":204.9884,"EPHEMERIS_TYPE":0,"NORAD_CAT_ID":60481,"ELEMENT_SET_NO":999,"REV_AT_EPOCH":10614,"BSTAR":0.00035324,"MEAN_MOTION_DOT":0.00014676,"MEAN_MOTION_DDOT":0},{"OBJECT_NAME":"FLOCK 4BE-36","OBJECT_ID":"2024-149U","EPOCH":"2026-07-12T12:53:37.544640","CLASSIFICATION_TYPE":"U","MEAN_MOTION":15.43480397,"ECCENTRICITY":0.0004338,"INCLINATION":97.3752,"RA_OF_ASC_NODE":278.2817,"ARG_OF_PERICENTER":158.8548,"MEAN_ANOMALY":201.2879,"EPHEMERIS_TYPE":0,"NORAD_CAT_ID":60486,"ELEMENT_SET_NO":999,"REV_AT_EPOCH":10626,"BSTAR":0.00023848,"MEAN_MOTION_DOT":0.00010597,"MEAN_MOTION_DDOT":0},{"OBJECT_NAME":"FLOCK 4BE-25","OBJECT_ID":"2024-149V","EPOCH":"2026-07-11T19:01:34.216896","CLASSIFICATION_TYPE":"U","MEAN_MOTION":15.39482396,"ECCENTRICITY":0.00035193,"INCLINATION":97.3799,"RA_OF_ASC_NODE":276.1193,"ARG_OF_PERICENTER":149.7719,"MEAN_ANOMALY":210.373,"EPHEMERIS_TYPE":0,"NORAD_CAT_ID":60487,"ELEMENT_SET_NO":999,"REV_AT_EPOCH":10602,"BSTAR":0.00022297906,"MEAN_MOTION_DOT":0.00008664,"MEAN_MOTION_DDOT":0},{"OBJECT_NAME":"FLOCK 4BE-31","OBJECT_ID":"2024-149W","EPOCH":"2026-07-12T11:29:50.097120","CLASSIFICATION_TYPE":"U","MEAN_MOTION":15.45080187,"ECCENTRICITY":0.0003785,"INCLINATION":97.3799,"RA_OF_ASC_NODE":279.1566,"ARG_OF_PERICENTER":158.7635,"MEAN_ANOMALY":201.3772,"EPHEMERIS_TYPE":0,"NORAD_CAT_ID":60488,"ELEMENT_SET_NO":999,"REV_AT_EPOCH":10628,"BSTAR":0.00030519,"MEAN_MOTION_DOT":0.00014349,"MEAN_MOTION_DDOT":0},{"OBJECT_NAME":"FLOCK 4BE-20","OBJECT_ID":"2024-149X","EPOCH":"2026-07-11T18:26:17.873952","CLASSIFICATION_TYPE":"U","MEAN_MOTION":15.38748408,"ECCENTRICITY":0.00047401,"INCLINATION":97.3697,"RA_OF_ASC_NODE":274.9117,"ARG_OF_PERICENTER":161.5503,"MEAN_ANOMALY":198.5915,"EPHEMERIS_TYPE":0,"NORAD_CAT_ID":60489,"ELEMENT_SET_NO":999,"REV_AT_EPOCH":10599,"BSTAR":0.00022866286,"MEAN_MOTION_DOT":0.00008677,"MEAN_MOTION_DDOT":0},{"OBJECT_NAME":"FLOCK 4BE-23","OBJECT_ID":"2024-149Y","EPOCH":"2026-07-11T18:21:49.362624","CLASSIFICATION_TYPE":"U","MEAN_MOTION":15.38303174,"ECCENTRICITY":0.00042453,"INCLINATION":97.3793,"RA_OF_ASC_NODE":275.2968,"ARG_OF_PERICENTER":164.9328,"MEAN_ANOMALY":195.2044,"EPHEMERIS_TYPE":0,"NORAD_CAT_ID":60490,"ELEMENT_SET_NO":999,"REV_AT_EPOCH":10597,"BSTAR":0.00021763546,"MEAN_MOTION_DOT":0.00008134,"MEAN_MOTION_DDOT":0}]}
