FLOCK 4Q-16             
1 58271U 23174R   26193.54278244  .00014692  00000+0  26082-3 0  9999
2 58271  97.3834 282.2572 0006968  84.1653 276.0392 15.50291631149504
FLOCK 4Q-11             
1 58273U 23174T   26193.19403040  .00015437  00000+0  26929-3 0  9994
2 58273  97.3867 282.5322 0006537  80.4449 279.7541 15.50780725149460
FLOCK 4Q-28             
1 58280U 23174AA  26193.06535663  .00020527  00000+0  28932-3 0  9997
2 58280  97.3887 285.1066 0005021  72.8254 287.3551 15.56636703149615
FLOCK 4Q-27             
1 58282U 23174AC  26193.51746214  .00021548  00000+0  30127-3 0  9998
2 58282  97.3816 284.9829 0004168  76.8262 283.3458 15.56849475149699
FLOCK 4Q-7              
1 58318U 23174BQ  26193.21503613  .00023281  00000+0  32085-3 0  9990
2 58318  97.3918 285.5833 0004851  55.7328 304.4386 15.57219370149648
FLOCK 4Q-2              
1 58320U 23174BS  26193.50142868  .00014735  00000+0  25753-3 0  9994
2 58320  97.3845 282.5609 0005082  60.1203 300.0553 15.50747451149521
FLOCK 4Q-9              
1 58322U 23174BU  26192.80942579  .00017304  00000+0  29692-3 0  9996
2 58322  97.3861 281.9592 0005980  62.9295 297.2566 15.51225011149405
FLOCK 4Q-4              
1 58327U 23174BZ  26193.20786950  .00013898  00000+0  25149-3 0  9992
2 58327  97.3831 281.4914 0006055  83.6191 276.5750 15.49766988149437
FLOCK 4Q-13             
1 58328U 23174CA  26192.81204799  .00015127  00000+0  24590-3 0  9991
2 58328  97.4007 284.3664 0006183  65.7003 294.4895 15.52773394149491
FLOCK 4BE-18            
1 60480U 24149N   26192.80097847  .00008312  00000+0  19276-3 0  9992
2 60480  97.3728 276.8003 0004912 153.7878 206.3619 15.42653469106107
FLOCK 4BE-7             
1 60481U 24149P   26193.48054727  .00014676  00000+0  35324-3 0  9990
2 60481  97.3761 276.7820 0004099 155.1561 204.9884 15.41376569106146
FLOCK 4BE-36            
1 60486U 24149U   26193.53724010  .00010597  00000+0  23848-3 0  9996
2 60486  97.3752 278.2817 0004338 158.8548 201.2879 15.43480397106269
FLOCK 4BE-25            
1 60487U 24149V   26192.79275714  .00008664  00000+0  22298-3 0  9996
2 60487  97.3799 276.1193 0003519 149.7719 210.3730 15.39482396106021
FLOCK 4BE-31            
1 60488U 24149W   26193.47905205  .00014349  00000+0  30519-3 0  9990
2 60488  97.3799 279.1566 0003785 158.7635 201.3772 15.45080187106284
FLOCK 4BE-20            
1 60489U 24149X   26192.76826243  .00008677  00000+0  22866-3 0  9999
2 60489  97.3697 274.9117 0004740 161.5503 198.5915 15.38748408105997
FLOCK 4BE-23            
1 60490U 24149Y   26192.76515466  .00008134  00000+0  21764-3 0  9997
2 60490  97.3793 275.2968 0004245 164.9328 195.2044 15.38303174105978
